start=new Date('2022-10-04T00:00:00.000Z').valueOf();
sats=[{"REF_FRAME":"TEME","RA_OF_ASC_NODE":"103.5489","APOAPSIS":"541.153","FILE":"3590585","ELEMENT_SET_NO":"999","REV_AT_EPOCH":"4558","RCS_SIZE":"LARGE","GP_ID":"214120818","OBJECT_NAME":"STARLINK-3262","MEAN_MOTION":"15.08848184","TIME_SYSTEM":"UTC","SEMIMAJOR_AXIS":"6917.855","PERIAPSIS":"538.288","DECAY_DATE":null,"OBJECT_ID":"2021-125BD","TLE_LINE2":"2 50207  53.2175 103.5489 0002071  39.4758 320.6385 15.08848184 45581","EPOCH":"2022-10-03T19:20:21.349824","NORAD_CAT_ID":"50207","SITE":"AFWTR","PERIOD":"95.437","TLE_LINE1":"1 50207U 21125BD  22276.80580266  .00013359  00000-0  85567-3 0  9994","OBJECT_TYPE":"PAYLOAD","MEAN_ELEMENT_THEORY":"SGP4","EPHEMERIS_TYPE":"0","CLASSIFICATION_TYPE":"U","ARG_OF_PERICENTER":"39.4758","BSTAR":"0.00085567000000","LAUNCH_DATE":"2021-12-18","MEAN_MOTION_DOT":"0.00013359","ECCENTRICITY":"0.00020710","COUNTRY_CODE":"US","MEAN_MOTION_DDOT":"0.0000000000000","MEAN_ANOMALY":"320.6385","INCLINATION":"53.2175","CENTER_NAME":"EARTH"},{"PERIAPSIS":"538.435","SEMIMAJOR_AXIS":"6917.850","TIME_SYSTEM":"UTC","MEAN_MOTION":"15.08849873","OBJECT_NAME":"STARLINK-3321","GP_ID":"214088592","RCS_SIZE":"LARGE","REV_AT_EPOCH":"4123","ELEMENT_SET_NO":"999","FILE":"3590320","APOAPSIS":"540.996","RA_OF_ASC_NODE":"34.4929","REF_FRAME":"TEME","EPHEMERIS_TYPE":"0","MEAN_ELEMENT_THEORY":"SGP4","OBJECT_TYPE":"PAYLOAD","TLE_LINE1":"1 50803U 22001A   22276.59142285  .00001702  00000-0  12501-3 0  9998","PERIOD":"95.437","SITE":"AFETR","NORAD_CAT_ID":"50803","EPOCH":"2022-10-03T14:11:38.934240","TLE_LINE2":"2 50803  53.2196  34.4929 0001851  46.3675 313.7471 15.08849873 41230","OBJECT_ID":"2022-001A","DECAY_DATE":null,"COUNTRY_CODE":"US","ECCENTRICITY":"0.00018510","LAUNCH_DATE":"2022-01-06","MEAN_MOTION_DOT":"0.00001702","BSTAR":"0.00012501000000","ARG_OF_PERICENTER":"46.3675","CLASSIFICATION_TYPE":"U","CENTER_NAME":"EARTH","INCLINATION":"53.2196","MEAN_ANOMALY":"313.7471","MEAN_MOTION_DDOT":"0.0000000000000"},{"REF_FRAME":"TEME","FILE":"3590585","RA_OF_ASC_NODE":"24.0563","APOAPSIS":"541.030","REV_AT_EPOCH":"4138","ELEMENT_SET_NO":"999","GP_ID":"214119599","OBJECT_NAME":"STARLINK-3323","RCS_SIZE":"LARGE","MEAN_MOTION":"15.08850526","TIME_SYSTEM":"UTC","PERIAPSIS":"538.396","SEMIMAJOR_AXIS":"6917.848","DECAY_DATE":null,"OBJECT_ID":"2022-001B","TLE_LINE2":"2 50804  53.2174  24.0563 0001904  37.0881 323.0242 15.08850526 41384","NORAD_CAT_ID":"50804","EPOCH":"2022-10-03T16:36:04.683168","PERIOD":"95.437","SITE":"AFETR","TLE_LINE1":"1 50804U 22001B   22276.69172087  .00014719  00000-0  94067-3 0  9992","OBJECT_TYPE":"PAYLOAD","MEAN_ELEMENT_THEORY":"SGP4","EPHEMERIS_TYPE":"0","CLASSIFICATION_TYPE":"U","ARG_OF_PERICENTER":"37.0881","BSTAR":"0.00094067000000","ECCENTRICITY":"0.00019040","LAUNCH_DATE":"2022-01-06","MEAN_MOTION_DOT":"0.00014719","COUNTRY_CODE":"US","MEAN_MOTION_DDOT":"0.0000000000000","MEAN_ANOMALY":"323.0242","INCLINATION":"53.2174","CENTER_NAME":"EARTH"},{"LAUNCH_DATE":"2022-01-06","MEAN_MOTION_DOT":"0.00002131","ECCENTRICITY":"0.00018200","COUNTRY_CODE":"US","ARG_OF_PERICENTER":"55.3022","BSTAR":"0.00015191000000","CLASSIFICATION_TYPE":"U","CENTER_NAME":"EARTH","INCLINATION":"53.2208","MEAN_MOTION_DDOT":"0.0000000000000","MEAN_ANOMALY":"304.8141","TIME_SYSTEM":"UTC","PERIAPSIS":"538.441","SEMIMAJOR_AXIS":"6917.835","OBJECT_NAME":"STARLINK-3333","GP_ID":"214119849","RCS_SIZE":"LARGE","MEAN_MOTION":"15.08854907","FILE":"3590585","RA_OF_ASC_NODE":"24.0675","APOAPSIS":"540.959","REV_AT_EPOCH":"4138","ELEMENT_SET_NO":"999","REF_FRAME":"TEME","MEAN_ELEMENT_THEORY":"SGP4","OBJECT_TYPE":"PAYLOAD","EPHEMERIS_TYPE":"0","PERIOD":"95.437","SITE":"AFETR","TLE_LINE1":"1 50805U 22001C   22276.68802373  .00002131  00000-0  15191-3 0  9996","TLE_LINE2":"2 50805  53.2208  24.0675 0001820  55.3022 304.8141 15.08854907 41386","EPOCH":"2022-10-03T16:30:45.250272","NORAD_CAT_ID":"50805","DECAY_DATE":null,"OBJECT_ID":"2022-001C"},{"PERIAPSIS":"538.572","SEMIMAJOR_AXIS":"6917.789","TIME_SYSTEM":"UTC","MEAN_MOTION":"15.08869847","OBJECT_NAME":"STARLINK-3335","GP_ID":"214120101","RCS_SIZE":"LARGE","REV_AT_EPOCH":"4138","ELEMENT_SET_NO":"999","FILE":"3590585","APOAPSIS":"540.737","RA_OF_ASC_NODE":"24.0696","REF_FRAME":"TEME","EPHEMERIS_TYPE":"0","OBJECT_TYPE":"PAYLOAD","MEAN_ELEMENT_THEORY":"SGP4","TLE_LINE1":"1 50806U 22001D   22276.68433909  .00016535  00000-0  10537-2 0  9993","PERIOD":"95.436","SITE":"AFETR","NORAD_CAT_ID":"50806","EPOCH":"2022-10-03T16:25:26.897376","TLE_LINE2":"2 50806  53.2168  24.0696 0001565  35.4900 324.6196 15.08869847 41384","OBJECT_ID":"2022-001D","DECAY_DATE":null,"COUNTRY_CODE":"US","ECCENTRICITY":"0.00015650","LAUNCH_DATE":"2022-01-06","MEAN_MOTION_DOT":"0.00016535","BSTAR":"0.00105370000000","ARG_OF_PERICENTER":"35.4900","CLASSIFICATION_TYPE":"U","CENTER_NAME":"EARTH","INCLINATION":"53.2168","MEAN_ANOMALY":"324.6196","MEAN_MOTION_DDOT":"0.0000000000000"},{"OBJECT_ID":"2022-001E","DECAY_DATE":null,"NORAD_CAT_ID":"50807","EPOCH":"2022-10-03T19:15:01.879776","TLE_LINE2":"2 50807  53.2165  23.5701 0001667  47.8656 312.2478 15.08867706 41402","TLE_LINE1":"1 50807U 22001E   22276.80210509  .00016873  00000-0  10749-2 0  9997","SITE":"AFETR","PERIOD":"95.436","EPHEMERIS_TYPE":"0","MEAN_ELEMENT_THEORY":"SGP4","OBJECT_TYPE":"PAYLOAD","REF_FRAME":"TEME","ELEMENT_SET_NO":"999","REV_AT_EPOCH":"4140","RA_OF_ASC_NODE":"23.5701","APOAPSIS":"540.814","FILE":"3590585","MEAN_MOTION":"15.08867706","RCS_SIZE":"LARGE","GP_ID":"214120345","OBJECT_NAME":"STARLINK-3353","SEMIMAJOR_AXIS":"6917.796","PERIAPSIS":"538.508","TIME_SYSTEM":"UTC","MEAN_ANOMALY":"312.2478","MEAN_MOTION_DDOT":"0.0000000000000","INCLINATION":"53.2165","CENTER_NAME":"EARTH","CLASSIFICATION_TYPE":"U","BSTAR":"0.00107490000000","ARG_OF_PERICENTER":"47.8656","COUNTRY_CODE":"US","LAUNCH_DATE":"2022-01-06","ECCENTRICITY":"0.00016670","MEAN_MOTION_DOT":"0.00016873"},{"MEAN_MOTION_DDOT":"0.0000000000000","MEAN_ANOMALY":"309.0922","CENTER_NAME":"EARTH","INCLINATION":"53.2181","ARG_OF_PERICENTER":"51.0229","BSTAR":"0.00056534000000","CLASSIFICATION_TYPE":"U","ECCENTRICITY":"0.00017840","LAUNCH_DATE":"2022-01-06","MEAN_MOTION_DOT":"0.00008725","COUNTRY_CODE":"US","TLE_LINE2":"2 50808  53.2181  24.1138 0001784  51.0229 309.0922 15.08857487 41385","NORAD_CAT_ID":"50808","EPOCH":"2022-10-03T16:14:52.084608","DECAY_DATE":null,"OBJECT_ID":"2022-001F","OBJECT_TYPE":"PAYLOAD","MEAN_ELEMENT_THEORY":"SGP4","EPHEMERIS_TYPE":"0","PERIOD":"95.436","SITE":"AFETR","TLE_LINE1":"1 50808U 22001F   22276.67699172  .00008725  00000-0  56534-3 0  9990","FILE":"3590585","APOAPSIS":"540.926","RA_OF_ASC_NODE":"24.1138","REV_AT_EPOCH":"4138","ELEMENT_SET_NO":"999","REF_FRAME":"TEME","TIME_SYSTEM":"UTC","PERIAPSIS":"538.458","SEMIMAJOR_AXIS":"6917.827","OBJECT_NAME":"STARLINK-3355","GP_ID":"214119100","RCS_SIZE":"LARGE","MEAN_MOTION":"15.08857487"},{"SITE":"AFETR","PERIOD":"95.436","TLE_LINE1":"1 50809U 22001G   22276.68067373  .00009461  00000-0  61137-3 0  9997","OBJECT_TYPE":"PAYLOAD","MEAN_ELEMENT_THEORY":"SGP4","EPHEMERIS_TYPE":"0","DECAY_DATE":null,"OBJECT_ID":"2022-001G","TLE_LINE2":"2 50809  53.2186  24.0997 0001837  49.1518 310.9633 15.08862012 41381","NORAD_CAT_ID":"50809","EPOCH":"2022-10-03T16:20:10.210272","RCS_SIZE":"LARGE","GP_ID":"214119350","OBJECT_NAME":"STARLINK-3232","MEAN_MOTION":"15.08862012","TIME_SYSTEM":"UTC","SEMIMAJOR_AXIS":"6917.813","PERIAPSIS":"538.407","REF_FRAME":"TEME","APOAPSIS":"540.949","RA_OF_ASC_NODE":"24.0997","FILE":"3590585","ELEMENT_SET_NO":"999","REV_AT_EPOCH":"4138","INCLINATION":"53.2186","CENTER_NAME":"EARTH","MEAN_MOTION_DDOT":"0.0000000000000","MEAN_ANOMALY":"310.9633","LAUNCH_DATE":"2022-01-06","MEAN_MOTION_DOT":"0.00009461","ECCENTRICITY":"0.00018370","COUNTRY_CODE":"US","CLASSIFICATION_TYPE":"U","ARG_OF_PERICENTER":"49.1518","BSTAR":"0.00061137000000"},{"DECAY_DATE":null,"OBJECT_ID":"2022-001H","TLE_LINE2":"2 50810  53.2163  23.5534 0001882  42.9686 317.1453 15.08869385 41408","NORAD_CAT_ID":"50810","EPOCH":"2022-10-03T19:20:20.103072","SITE":"AFETR","PERIOD":"95.436","TLE_LINE1":"1 50810U 22001H   22276.80578823  .00017250  00000-0  10984-2 0  9998","MEAN_ELEMENT_THEORY":"SGP4","OBJECT_TYPE":"PAYLOAD","EPHEMERIS_TYPE":"0","REF_FRAME":"TEME","RA_OF_ASC_NODE":"23.5534","APOAPSIS":"540.958","FILE":"3590585","ELEMENT_SET_NO":"999","REV_AT_EPOCH":"4140","RCS_SIZE":"LARGE","GP_ID":"214120601","OBJECT_NAME":"STARLINK-3348","MEAN_MOTION":"15.08869385","TIME_SYSTEM":"UTC","SEMIMAJOR_AXIS":"6917.791","PERIAPSIS":"538.354","MEAN_MOTION_DDOT":"0.0000000000000","MEAN_ANOMALY":"317.1453","INCLINATION":"53.2163","CENTER_NAME":"EARTH","CLASSIFICATION_TYPE":"U","ARG_OF_PERICENTER":"42.9686","BSTAR":"0.00109840000000","MEAN_MOTION_DOT":"0.00017250","LAUNCH_DATE":"2022-01-06","ECCENTRICITY":"0.00018820","COUNTRY_CODE":"US"},{"REF_FRAME":"TEME","FILE":"3590585","APOAPSIS":"541.599","RA_OF_ASC_NODE":"23.5840","REV_AT_EPOCH":"4140","ELEMENT_SET_NO":"999","GP_ID":"214120845","OBJECT_NAME":"STARLINK-3347","RCS_SIZE":"LARGE","MEAN_MOTION":"15.08873722","TIME_SYSTEM":"UTC","PERIAPSIS":"537.686","SEMIMAJOR_AXIS":"6917.777","DECAY_DATE":null,"OBJECT_ID":"2022-001J","TLE_LINE2":"2 50811  53.2173  23.5840 0002828  36.8891 323.2295 15.08873722 41403","NORAD_CAT_ID":"50811","EPOCH":"2022-10-03T19:09:44.230176","PERIOD":"95.435","SITE":"AFETR","TLE_LINE1":"1 50811U 22001J   22276.79842859  .00021309  00000-0  13516-2 0  9994","MEAN_ELEMENT_THEORY":"SGP4","OBJECT_TYPE":"PAYLOAD","EPHEMERIS_TYPE":"0","CLASSIFICATION_TYPE":"U","ARG_OF_PERICENTER":"36.8891","BSTAR":"0.00135160000000","MEAN_MOTION_DOT":"0.00021309","LAUNCH_DATE":"2022-01-06","ECCENTRICITY":"0.00028280","COUNTRY_CODE":"US","MEAN_MOTION_DDOT":"0.0000000000000","MEAN_ANOMALY":"323.2295","INCLINATION":"53.2173","CENTER_NAME":"EARTH"}];
